NORAD_CAT_ID,OBJECT_NAME,OBJECT_TYPE,EPOCH,MEAN_MOTION,ECCENTRICITY,INCLINATION,RA_OF_ASC_NODE,ARG_OF_PERICENTER,MEAN_ANOMALY,BSTAR,MEAN_MOTION_DOT,MEAN_MOTION_DDOT,TLE_LINE0,TLE_LINE1,TLE_LINE2,SEMIMAJOR_AXIS,PERIOD,APOGEE,PERIGEE,DECAYED
53828.0,STARLINK-4760,PAYLOAD,2023-05-30 10:16:05,15.0883244,8.58e-05,53.2151,177.2255,77.7814,282.3274,-3.2064e-05,-7.98e-06,0.0,0 STARLINK-4760,1 53828U 22114L   23150.42784027 -.00000798  00000-0 -32064-4 0  9996,2 53828  53.2151 177.2255 0000858  77.7814 282.3274 15.08832440 39712,6917.903,95.438,540.362,539.175,0.0
53828.0,STARLINK-4760,PAYLOAD,2023-05-30 18:13:00,15.08835403,8.59e-05,53.2152,175.7387,76.5774,283.5314,-1.7896e-05,-5.72e-06,0.0,0 STARLINK-4760,1 53828U 22114L   23150.75903886 -.00000572  00000-0 -17896-4 0  9994,2 53828  53.2152 175.7387 0000859  76.5774 283.5314 15.08835403 39760,6917.894,95.438,540.354,539.165,0.0
53828.0,STARLINK-4760,PAYLOAD,2023-05-31 08:31:29,15.08837889,8.49e-05,53.2153,173.0626,86.0237,274.0852,1.1943e-05,-9.8e-07,0.0,0 STARLINK-4760,1 53828U 22114L   23151.35519731 -.00000098  00000-0  11943-4 0  9992,2 53828  53.2153 173.0626 0000849  86.0237 274.0852 15.08837889 39310,6917.887,95.438,540.339,539.165,0.0
53828.0,STARLINK-4760,PAYLOAD,2023-05-31 18:03:47,15.08835745,8.1e-05,53.2151,171.2775,81.4531,278.6553,3.1409e-05,2.12e-06,0.0,0 STARLINK-4760,1 53828U 22114L   23151.75263876  .00000212  00000-0  31409-4 0  9998,2 53828  53.2151 171.2775 0000810  81.4531 278.6553 15.08835745 39910,6917.893,95.438,540.319,539.198,0.0
53828.0,STARLINK-4760,PAYLOAD,2023-06-01 06:46:53,15.08833265,8.31e-05,53.2152,168.8986,83.7853,276.3234,7.9933e-05,9.84e-06,0.0,0 STARLINK-4760,1 53828U 22114L   23152.28256086  .00000984  00000-0  79933-4 0  9992,2 53828  53.2152 168.8986 0000831  83.7853 276.3234 15.08833265 39996,6917.901,95.438,540.341,539.191,0.0
53828.0,STARLINK-4760,PAYLOAD,2023-06-02 00:16:07,15.0883864,8.49e-05,53.2152,165.6275,81.7185,278.3904,5.4912e-05,5.86e-06,0.0,0 STARLINK-4760,1 53828U 22114L   23153.01120045  .00000586  00000-0  54912-4 0  9997,2 53828  53.2152 165.6275 0000849  81.7185 278.3904 15.08838640 39568,6917.885,95.438,540.337,539.162,0.0
53828.0,STARLINK-4760,PAYLOAD,2023-06-02 06:37:40,15.08839376,8.59e-05,53.2152,164.438,81.5405,278.5684,5.6784e-05,6.16e-06,0.0,0 STARLINK-4760,1 53828U 22114L   23153.27616012  .00000616  00000-0  56784-4 0  9992,2 53828  53.2152 164.4380 0000859  81.5405 278.5684 15.08839376 40146,6917.882,95.438,540.342,539.153,0.0
53828.0,STARLINK-4760,PAYLOAD,2023-06-02 17:45:22,15.08838769,8.79e-05,53.2155,162.3565,81.2656,278.8435,4.7864e-05,4.74e-06,0.0,0 STARLINK-4760,1 53828U 22114L   23153.73984145  .00000474  00000-0  47864-4 0  9999,2 53828  53.2155 162.3565 0000879  81.2656 278.8435 15.08838769 40218,6917.884,95.438,540.357,539.141,0.0
53828.0,STARLINK-4760,PAYLOAD,2023-06-03 08:03:50,15.08837731,8.76e-05,53.2155,159.6803,82.29,277.8191,3.6751e-05,2.97e-06,0.0,0 STARLINK-4760,1 53828U 22114L   23154.33600327  .00000297  00000-0  36751-4 0  9999,2 53828  53.2155 159.6803 0000876  82.2900 277.8191 15.08837731 39766,6917.887,95.438,540.358,539.146,0.0
53828.0,STARLINK-4760,PAYLOAD,2023-06-03 17:36:09,15.08839515,8.8e-05,53.2156,157.8961,81.0605,279.0487,4.1729e-05,3.76e-06,0.0,0 STARLINK-4760,1 53828U 22114L   23154.73344205  .00000376  00000-0  41729-4 0  9992,2 53828  53.2156 157.8961 0000880  81.0605 279.0487 15.08839515 40368,6917.882,95.438,540.356,539.138,0.0
53828.0,STARLINK-4760,PAYLOAD,2023-06-04 09:30:00,15.08843492,8.65e-05,53.2153,154.9222,79.9483,280.1606,5.8839e-05,6.49e-06,0.0,0 STARLINK-4760,1 53828U 22114L   23155.39583812  .00000649  00000-0  58839-4 0  9997,2 53828  53.2153 154.9222 0000865  79.9483 280.1606 15.08843492 39921,6917.87,95.437,540.333,539.136,0.0
53828.0,STARLINK-4760,PAYLOAD,2023-06-05 09:20:47,15.08841075,8.62e-05,53.2153,150.4612,80.3919,279.7171,5.5037e-05,5.88e-06,0.0,0 STARLINK-4760,1 53828U 22114L   23156.38943853  .00000588  00000-0  55037-4 0  9991,2 53828  53.2153 150.4612 0000862  80.3919 279.7171 15.08841075 40616,6917.877,95.437,540.338,539.146,0.0
53828.0,STARLINK-4760,PAYLOAD,2023-06-05 23:39:16,15.08838136,8.78e-05,53.215,147.7849,80.3033,279.8058,-1.102e-05,-4.63e-06,0.0,0 STARLINK-4760,1 53828U 22114L   23156.98560285 -.00000463  00000-0 -11020-4 0  9999,2 53828  53.2150 147.7849 0000878  80.3033 279.8058 15.08838136 40167,6917.886,95.438,540.358,539.144,0.0
53828.0,STARLINK-4760,PAYLOAD,2023-06-06 09:11:34,15.08837767,8.97e-05,53.2151,146.001,80.0683,280.0411,-1.1757e-05,-4.75e-06,0.0,0 STARLINK-4760,1 53828U 22114L   23157.38304328 -.00000475  00000-0 -11757-4 0  9998,2 53828  53.2151 146.0010 0000897  80.0683 280.0411 15.08837767 40761,6917.887,95.438,540.373,539.132,0.0
53828.0,STARLINK-4760,PAYLOAD,2023-06-07 09:02:21,15.08840924,9.08e-05,53.2156,141.5405,81.9156,278.1939,4.3284e-05,4.01e-06,0.0,0 STARLINK-4760,1 53828U 22114L   23158.37664043  .00000401  00000-0  43284-4 0  9998,2 53828  53.2156 141.5405 0000908  81.9156 278.1939 15.08840924 40371,6917.878,95.437,540.371,539.114,0.0
53828.0,STARLINK-4760,PAYLOAD,2023-06-07 15:23:54,15.08836144,9e-05,53.2155,140.3509,80.3663,279.7431,1.6983e-05,-1.7e-07,0.0,0 STARLINK-4760,1 53828U 22114L   23158.64160467 -.00000017  00000-0  16983-4 0  9999,2 53828  53.2155 140.3509 0000900  80.3663 279.7431 15.08836144 40957,6917.892,95.438,540.38,539.135,0.0
53828.0,STARLINK-4760,PAYLOAD,2023-06-07 23:20:50,15.08833525,9.03e-05,53.2154,138.8643,81.8983,278.2111,2.3544e-05,8.7e-07,0.0,0 STARLINK-4760,1 53828U 22114L   23158.97280710  .00000087  00000-0  23544-4 0  9996,2 53828  53.2154 138.8643 0000903  81.8983 278.2111 15.08833525 40466,6917.9,95.438,540.39,539.14,0.0
53828.0,STARLINK-4760,PAYLOAD,2023-06-08 08:53:09,15.08838533,9.28e-05,53.2154,137.0802,81.9125,278.1972,6.2605e-05,7.09e-06,0.0,0 STARLINK-4760,1 53828U 22114L   23159.37024367  .00000709  00000-0  62605-4 0  9997,2 53828  53.2154 137.0802 0000928  81.9125 278.1972 15.08838533 41065,6917.885,95.438,540.392,539.108,0.0
53828.0,STARLINK-4760,PAYLOAD,2023-06-08 15:14:41,15.08835815,9.23e-05,53.2154,135.8906,81.1333,278.9763,4.0464e-05,3.56e-06,0.0,0 STARLINK-4760,1 53828U 22114L   23159.63520669  .00000356  00000-0  40464-4 0  9999,2 53828  53.2154 135.8906 0000923  81.1333 278.9763 15.08835815 41105,6917.893,95.438,540.397,539.12,0.0
53828.0,STARLINK-4760,PAYLOAD,2023-06-09 05:33:09,15.08841802,9.52e-05,53.2154,133.2144,83.2777,276.8323,5.3481e-05,5.64e-06,0.0,0 STARLINK-4760,1 53828U 22114L   23160.23136368  .00000564  00000-0  53481-4 0  9990,2 53828  53.2154 133.2144 0000952  83.2777 276.8323 15.08841802 41199,6917.875,95.437,540.398,539.081,0.0
53828.0,STARLINK-4760,PAYLOAD,2023-06-09 15:05:29,15.0883491,9.4e-05,53.2152,131.4302,85.1441,274.9658,-5.9056e-07,-2.97e-06,0.0,0 STARLINK-4760,1 53828U 22114L   23160.62880994 -.00000297  00000-0 -59056-6 0  9995,2 53828  53.2152 131.4302 0000940  85.1441 274.9658 15.08834910 40718,6917.896,95.438,540.411,539.111,0.0
53828.0,STARLINK-4760,PAYLOAD,2023-06-10 06:59:20,15.08838613,9.73e-05,53.2157,128.4567,91.4003,268.71,3.461e-05,2.63e-06,0.0,0 STARLINK-4760,1 53828U 22114L   23161.29120911  .00000263  00000-0  34610-4 0  9993,2 53828  53.2157 128.4567 0000973  91.4003 268.7100 15.08838613 41350,6917.885,95.438,540.423,539.077,0.0
53828.0,STARLINK-4760,PAYLOAD,2023-06-11 03:39:21,15.08835124,0.0001022,53.2158,124.5911,94.1335,265.9774,2.7542e-05,1.51e-06,0.0,0 STARLINK-4760,1 53828U 22114L   23162.15233403  .00000151  00000-0  27542-4 0  9992,2 53828  53.2158 124.5911 0001022  94.1335 265.9774 15.08835124 40949,6917.895,95.438,540.467,539.053,0.0
53828.0,STARLINK-4760,PAYLOAD,2023-06-11 06:50:07,15.08839496,0.0001048,53.2157,123.996,102.3234,257.7876,5.1766e-05,5.36e-06,0.0,0 STARLINK-4760,1 53828U 22114L   23162.28481027  .00000536  00000-0  51766-4 0  9995,2 53828  53.2157 123.9960 0001048 102.3234 257.7876 15.08839496 41504,6917.882,95.438,540.472,539.022,0.0
53828.0,STARLINK-4760,PAYLOAD,2023-06-11 14:47:03,15.08843157,0.0001,53.2158,122.5088,84.2933,275.8173,-6.5552e-05,-1.331e-05,0.0,0 STARLINK-4760,1 53828U 22114L   23162.61601163 -.00001331  00000-0 -65552-4 0  9991,2 53828  53.2158 122.5088 0001000  84.2933 275.8173 15.08843157 41558,6917.871,95.437,540.428,539.044,0.0
53828.0,STARLINK-4760,PAYLOAD,2023-06-12 01:54:45,15.08836964,0.0001132,53.2163,120.4264,87.7161,272.3961,9.4259e-05,1.213e-05,0.0,0 STARLINK-4760,1 53828U 22114L   23163.07969250  .00001213  00000-0  94259-4 0  9999,2 53828  53.2163 120.4264 0001132  87.7161 272.3961 15.08836964 41627,6917.89,95.438,540.538,538.972,0.0
53828.0,STARLINK-4760,PAYLOAD,2023-06-12 14:37:50,15.08841068,0.000114,53.2164,118.0475,88.5245,271.5878,6.7927e-05,7.93e-06,0.0,0 STARLINK-4760,1 53828U 22114L   23163.60961068  .00000793  00000-0  67927-4 0  9991,2 53828  53.2164 118.0475 0001140  88.5245 271.5878 15.08841068 41704,6917.877,95.437,540.531,538.953,0.0
53828.0,STARLINK-4760,PAYLOAD,2023-06-13 03:20:55,15.08839889,0.0001143,53.2164,115.6693,86.0111,274.1011,1.9032e-05,1.5e-07,0.0,0 STARLINK-4760,1 53828U 22114L   23164.13953318  .00000015  00000-0  19032-4 0  9990,2 53828  53.2164 115.6693 0001143  86.0111 274.1011 15.08839889 41242,6917.881,95.438,540.536,538.955,0.0
53828.0,STARLINK-4760,PAYLOAD,2023-06-13 20:50:10,15.08841217,0.0001203,53.2173,112.3978,95.1201,264.9929,1.5795e-05,-3.6e-07,0.0,0 STARLINK-4760,1 53828U 22114L   23164.86817223 -.00000036  00000-0  15795-4 0  9990,2 53828  53.2173 112.3978 0001203  95.1201 264.9929 15.08841217 41894,6917.877,95.437,540.574,538.909,0.0
53828.0,STARLINK-4760,PAYLOAD,2023-06-14 06:22:28,15.08843797,0.0001242,53.2172,110.6145,95.6524,264.4609,6.3113e-05,7.17e-06,0.0,0 STARLINK-4760,1 53828U 22114L   23165.26560838  .00000717  00000-0  63113-4 0  9994,2 53828  53.2172 110.6145 0001242  95.6524 264.4609 15.08843797 41419,6917.869,95.437,540.593,538.875,0.0
